NOAA 15                 
1 25338U 98030A   25124.13948212  .00000341  00000+0  15776-3 0  9991
2 25338  98.5380 150.1434 0011507 105.1545 255.0910 14.26957848403204
NOAA 18                 
1 28654U 05018A   25124.16993808  .00000317  00000+0  19135-3 0  9999
2 28654  98.8422 204.0552 0013441 229.3262 130.6743 14.13590821 28601
NOAA 19                 
1 33591U 09005A   25124.17048892  .00000310  00000+0  18924-3 0  9998
2 33591  98.9992 188.6675 0014862 106.3286 253.9522 14.13355066836961
SUOMI NPP               
1 37849U 11061A   25124.17126833  .00000165  00000+0  98978-4 0  9991
2 37849  98.7559  63.8447 0002492  70.7244 289.4202 14.19528143700405
NOAA 20 (JPSS-1)        
1 43013U 17073A   25124.18689124  .00000151  00000+0  92602-4 0  9991
2 43013  98.7398  63.2350 0002030  60.9049 299.2330 14.19533835386444
NOAA 21 (JPSS-2)        
1 54234U 22150A   25123.87069080  .00000172  00000+0  10230-3 0  9997
2 54234  98.7253  63.2794 0000560 312.3197  47.7932 14.19528194128470
