[
  {
    "OBJECT_NAME": "NOAA 15",
    "OBJECT_ID": "1998-030A",
    "EPOCH": "2025-05-04T03:20:51.255168",
    "MEAN_MOTION": 14.26957848,
    "ECCENTRICITY": 0.0011507,
    "INCLINATION": 98.538,
    "RA_OF_ASC_NODE": 150.1434,
    "ARG_OF_PERICENTER": 105.1545,
    "MEAN_ANOMALY": 255.091,
    "EPHEMERIS_TYPE": 0,
    "CLASSIFICATION_TYPE": "U",
    "NORAD_CAT_ID": 25338,
    "ELEMENT_SET_NO": 999,
    "REV_AT_EPOCH": 40320,
    "BSTAR": 0.00015776,
    "MEAN_MOTION_DOT": 3.41e-06,
    "MEAN_MOTION_DDOT": 0
  },
  {
    "OBJECT_NAME": "NOAA 18",
    "OBJECT_ID": "2005-018A",
    "EPOCH": "2025-05-04T04:04:42.650112",
    "MEAN_MOTION": 14.13590821,
    "ECCENTRICITY": 0.0013441,
    "INCLINATION": 98.8422,
    "RA_OF_ASC_NODE": 204.0552,
    "ARG_OF_PERICENTER": 229.3262,
    "MEAN_ANOMALY": 130.6743,
    "EPHEMERIS_TYPE": 0,
    "CLASSIFICATION_TYPE": "U",
    "NORAD_CAT_ID": 28654,
    "ELEMENT_SET_NO": 999,
    "REV_AT_EPOCH": 2860,
    "BSTAR": 0.00019135,
    "MEAN_MOTION_DOT": 3.17e-06,
    "MEAN_MOTION_DDOT": 0
  },
  {
    "OBJECT_NAME": "NOAA 19",
    "OBJECT_ID": "2009-005A",
    "EPOCH": "2025-05-04T04:05:30.242688",
    "MEAN_MOTION": 14.13355066,
    "ECCENTRICITY": 0.0014862,
    "INCLINATION": 98.9992,
    "RA_OF_ASC_NODE": 188.6675,
    "ARG_OF_PERICENTER": 106.3286,
    "MEAN_ANOMALY": 253.9522,
    "EPHEMERIS_TYPE": 0,
    "CLASSIFICATION_TYPE": "U",
    "NORAD_CAT_ID": 33591,
    "ELEMENT_SET_NO": 999,
    "REV_AT_EPOCH": 83696,
    "BSTAR": 0.00018924,
    "MEAN_MOTION_DOT": 3.1e-06,
    "MEAN_MOTION_DDOT": 0
  },
  {
    "OBJECT_NAME": "SUOMI NPP",
    "OBJECT_ID": "2011-061A",
    "EPOCH": "2025-05-04T04:06:37.583712",
    "MEAN_MOTION": 14.19528143,
    "ECCENTRICITY": 0.0002492,
    "INCLINATION": 98.7559,
    "RA_OF_ASC_NODE": 63.8447,
    "ARG_OF_PERICENTER": 70.7244,
    "MEAN_ANOMALY": 289.4202,
    "EPHEMERIS_TYPE": 0,
    "CLASSIFICATION_TYPE": "U",
    "NORAD_CAT_ID": 37849,
    "ELEMENT_SET_NO": 999,
    "REV_AT_EPOCH": 70040,
    "BSTAR": 9.8978e-05,
    "MEAN_MOTION_DOT": 1.65e-06,
    "MEAN_MOTION_DDOT": 0
  },
  {
    "OBJECT_NAME": "NOAA 20 (JPSS-1)",
    "OBJECT_ID": "2017-073A",
    "EPOCH": "2025-05-04T04:29:07.403136",
    "MEAN_MOTION": 14.19533835,
    "ECCENTRICITY": 0.000203,
    "INCLINATION": 98.7398,
    "RA_OF_ASC_NODE": 63.235,
    "ARG_OF_PERICENTER": 60.9049,
    "MEAN_ANOMALY": 299.233,
    "EPHEMERIS_TYPE": 0,
    "CLASSIFICATION_TYPE": "U",
    "NORAD_CAT_ID": 43013,
    "ELEMENT_SET_NO": 999,
    "REV_AT_EPOCH": 38644,
    "BSTAR": 9.2602e-05,
    "MEAN_MOTION_DOT": 1.51e-06,
    "MEAN_MOTION_DDOT": 0
  },
  {
    "OBJECT_NAME": "NOAA 21 (JPSS-2)",
    "OBJECT_ID": "2022-150A",
    "EPOCH": "2025-05-03T20:53:47.685120",
    "MEAN_MOTION": 14.19528194,
    "ECCENTRICITY": 5.6e-05,
    "INCLINATION": 98.7253,
    "RA_OF_ASC_NODE": 63.2794,
    "ARG_OF_PERICENTER": 312.3197,
    "MEAN_ANOMALY": 47.7932,
    "EPHEMERIS_TYPE": 0,
    "CLASSIFICATION_TYPE": "U",
    "NORAD_CAT_ID": 54234,
    "ELEMENT_SET_NO": 999,
    "REV_AT_EPOCH": 12847,
    "BSTAR": 0.0001023,
    "MEAN_MOTION_DOT": 1.72e-06,
    "MEAN_MOTION_DDOT": 0
  }
]